{"type": "FeatureCollection", "features": [ {"type": "Feature", "properties": {"norad_id": 34571, "name": "COSMOS 2251 DEB", "group": "cosmos-2251-debris", "lat": -70.71519150894449, "lon": 37.478268669574156, "alt_km": 715.2151231910784, "timestamp": "2025-12-23T07:45:09.799762+00:00", "meta": {"OBJECT_NAME": "COSMOS 2251 DEB", "OBJECT_ID": "1993-036VH", "EPOCH": "2025-12-21T21:25:20.768736", "MEAN_MOTION": 14.4895116, "ECCENTRICITY": 0.00652122, "INCLINATION": 74.039, "RA_OF_ASC_NODE": 165.2791, "ARG_OF_PERICENTER": 198.2553, "MEAN_ANOMALY": 161.6266, "EPHEMERIS_TYPE": 0, "CLASSIFICATION_TYPE": "U", "NORAD_CAT_ID": 34571, "ELEMENT_SET_NO": 999, "REV_AT_EPOCH": 87426, "BSTAR": 0.0025690074, "MEAN_MOTION_DOT": 9.985e-05, "MEAN_MOTION_DDOT": 0}, "tle": {"line1": "1 34571U 93036VH  25355.89260149  .00009985  00000+0  25690-2 0  9994", "line2": "2 34571  74.0390 165.2791 0065212 198.2553 161.6266 14.48951160874269"}}, "geometry": {"type": "Point", "coordinates": [37.478268669574156, -70.71519150894449]}}, {"type": "Feature", "properties": {"norad_id": 34572, "name": "COSMOS 2251 DEB", "group": "cosmos-2251-debris", "lat": 11.988529818951218, "lon": -87.89366421376862, "alt_km": 682.1038652632978, "timestamp": "2025-12-23T07:45:09.799772+00:00", "meta": {"OBJECT_NAME": "COSMOS 2251 DEB", "OBJECT_ID": "1993-036VJ", "EPOCH": "2025-12-22T08:04:06.005568", "MEAN_MOTION": 14.50188694, "ECCENTRICITY": 0.00616659, "INCLINATION": 74.0115, "RA_OF_ASC_NODE": 97.4527, "ARG_OF_PERICENTER": 169.5509, "MEAN_ANOMALY": 247.8934, "EPHEMERIS_TYPE": 0, "CLASSIFICATION_TYPE": "U", "NORAD_CAT_ID": 34572, "ELEMENT_SET_NO": 999, "REV_AT_EPOCH": 87517, "BSTAR": 0.0026494819, "MEAN_MOTION_DOT": 0.00010544, "MEAN_MOTION_DDOT": 0}, "tle": {"line1": "1 34572U 93036VJ  25356.33618062  .00010544  00000+0  26495-2 0  9993", "line2": "2 34572  74.0115  97.4527 0061665 169.5509 247.8934 14.50188694875175"}}, "geometry": {"type": "Point", "coordinates": [-87.89366421376862, 11.988529818951218]}}, {"type": "Feature", "properties": {"norad_id": 34574, "name": "COSMOS 2251 DEB", "group": "cosmos-2251-debris", "lat": 58.59523543611124, "lon": 174.73444735152606, "alt_km": 641.9222970482379, "timestamp": "2025-12-23T07:45:09.799782+00:00", "meta": {"OBJECT_NAME": "COSMOS 2251 DEB", "OBJECT_ID": "1993-036VL", "EPOCH": "2025-12-22T03:43:37.953696", "MEAN_MOTION": 14.70698881, "ECCENTRICITY": 0.00671818, "INCLINATION": 74.0679, "RA_OF_ASC_NODE": 24.8931, "ARG_OF_PERICENTER": 42.8565, "MEAN_ANOMALY": 13.7462, "EPHEMERIS_TYPE": 0, "CLASSIFICATION_TYPE": "U", "NORAD_CAT_ID": 34574, "ELEMENT_SET_NO": 999, "REV_AT_EPOCH": 88917, "BSTAR": 0.00094180568, "MEAN_MOTION_DOT": 5.915e-05, "MEAN_MOTION_DDOT": 0}, "tle": {"line1": "1 34574U 93036VL  25356.15530039  .00005915  00000+0  94181-3 0  9996", "line2": "2 34574  74.0679  24.8931 0067181  42.8565  13.7462 14.70698881889176"}}, "geometry": {"type": "Point", "coordinates": [174.73444735152606, 58.59523543611124]}}, {"type": "Feature", "properties": {"norad_id": 34576, "name": "COSMOS 2251 DEB", "group": "cosmos-2251-debris", "lat": -45.40183025469213, "lon": -44.97529995315387, "alt_km": 708.9879601168286, "timestamp": "2025-12-23T07:45:09.799792+00:00", "meta": {"OBJECT_NAME": "COSMOS 2251 DEB", "OBJECT_ID": "1993-036VN", "EPOCH": "2025-12-22T07:44:16.997280", "MEAN_MOTION": 14.55488291, "ECCENTRICITY": 0.00082401, "INCLINATION": 74.0347, "RA_OF_ASC_NODE": 120.0424, "ARG_OF_PERICENTER": 257.8353, "MEAN_ANOMALY": 129.0853, "EPHEMERIS_TYPE": 0, "CLASSIFICATION_TYPE": "U", "NORAD_CAT_ID": 34576, "ELEMENT_SET_NO": 999, "REV_AT_EPOCH": 88606, "BSTAR": 0.00083691505, "MEAN_MOTION_DOT": 3.617e-05, "MEAN_MOTION_DDOT": 0}, "tle": {"line1": "1 34576U 93036VN  25356.32241895  .00003617  00000+0  83692-3 0  9998", "line2": "2 34576  74.0347 120.0424 0008240 257.8353 129.0853 14.55488291886065"}}, "geometry": {"type": "Point", "coordinates": [-44.97529995315387, -45.40183025469213]}}, {"type": "Feature", "properties": {"norad_id": 34579, "name": "COSMOS 2251 DEB", "group": "cosmos-2251-debris", "lat": 56.41028874064303, "lon": -130.3062324390163, "alt_km": 751.9292492777995, "timestamp": "2025-12-23T07:45:09.799802+00:00", "meta": {"OBJECT_NAME": "COSMOS 2251 DEB", "OBJECT_ID": "1993-036VR", "EPOCH": "2025-12-22T18:45:53.200800", "MEAN_MOTION": 14.45333715, "ECCENTRICITY": 0.00275078, "INCLINATION": 74.0515, "RA_OF_ASC_NODE": 205.1972, "ARG_OF_PERICENTER": 272.3481, "MEAN_ANOMALY": 212.941, "EPHEMERIS_TYPE": 0, "CLASSIFICATION_TYPE": "U", "NORAD_CAT_ID": 34579, "ELEMENT_SET_NO": 999, "REV_AT_EPOCH": 88319, "BSTAR": 0.00031216852, "MEAN_MOTION_DOT": 1.075e-05, "MEAN_MOTION_DDOT": 0}, "tle": {"line1": "1 34579U 93036VR  25356.78186575  .00001075  00000+0  31217-3 0  9996", "line2": "2 34579  74.0515 205.1972 0027507 272.3481 212.9410 14.45333715883190"}}, "geometry": {"type": "Point", "coordinates": [-130.3062324390163, 56.41028874064303]}}, {"type": "Feature", "properties": {"norad_id": 34582, "name": "COSMOS 2251 DEB", "group": "cosmos-2251-debris", "lat": -69.7603885830038, "lon": -158.3086025417353, "alt_km": 746.9308723426584, "timestamp": "2025-12-23T07:45:09.799812+00:00", "meta": {"OBJECT_NAME": "COSMOS 2251 DEB", "OBJECT_ID": "1993-036VU", "EPOCH": "2025-12-22T17:08:14.927424", "MEAN_MOTION": 14.43373223, "ECCENTRICITY": 0.0048415, "INCLINATION": 74.0196, "RA_OF_ASC_NODE": 253.8278, "ARG_OF_PERICENTER": 1.8359, "MEAN_ANOMALY": 358.2965, "EPHEMERIS_TYPE": 0, "CLASSIFICATION_TYPE": "U", "NORAD_CAT_ID": 34582, "ELEMENT_SET_NO": 999, "REV_AT_EPOCH": 88091, "BSTAR": 0.00069321765, "MEAN_MOTION_DOT": 2.346e-05, "MEAN_MOTION_DDOT": 0}, "tle": {"line1": "1 34582U 93036VU  25356.71406166  .00002346  00000+0  69322-3 0  9994", "line2": "2 34582  74.0196 253.8278 0048415   1.8359 358.2965 14.43373223880910"}}, "geometry": {"type": "Point", "coordinates": [-158.3086025417353, -69.7603885830038]}}, {"type": "Feature", "properties": {"norad_id": 34588, "name": "COSMOS 2251 DEB", "group": "cosmos-2251-debris", "lat": -66.22153135012871, "lon": -151.85080310629337, "alt_km": 745.1684407582707, "timestamp": "2025-12-23T07:45:09.799822+00:00", "meta": {"OBJECT_NAME": "COSMOS 2251 DEB", "OBJECT_ID": "1993-036WA", "EPOCH": "2025-12-22T20:46:45.349824", "MEAN_MOTION": 14.420499, "ECCENTRICITY": 0.00192987, "INCLINATION": 74.0427, "RA_OF_ASC_NODE": 249.492, "ARG_OF_PERICENTER": 301.1565, "MEAN_ANOMALY": 134.1031, "EPHEMERIS_TYPE": 0, "CLASSIFICATION_TYPE": "U", "NORAD_CAT_ID": 34588, "ELEMENT_SET_NO": 999, "REV_AT_EPOCH": 88096, "BSTAR": 0.00038375167, "MEAN_MOTION_DOT": 1.236e-05, "MEAN_MOTION_DDOT": 0}, "tle": {"line1": "1 34588U 93036WA  25356.86580266  .00001236  00000+0  38375-3 0  9991", "line2": "2 34588  74.0427 249.4920 0019298 301.1565 134.1031 14.42049900880961"}}, "geometry": {"type": "Point", "coordinates": [-151.85080310629337, -66.22153135012871]}}, {"type": "Feature", "properties": {"norad_id": 34589, "name": "COSMOS 2251 DEB", "group": "cosmos-2251-debris", "lat": 18.511827759184154, "lon": -147.5418491017768, "alt_km": 1127.000777896872, "timestamp": "2025-12-23T07:45:09.799833+00:00", "meta": {"OBJECT_NAME": "COSMOS 2251 DEB", "OBJECT_ID": "1993-036WB", "EPOCH": "2025-12-22T21:28:19.587360", "MEAN_MOTION": 13.8606442, "ECCENTRICITY": 0.02523114, "INCLINATION": 73.9251, "RA_OF_ASC_NODE": 38.7279, "ARG_OF_PERICENTER": 340.0599, "MEAN_ANOMALY": 203.9876, "EPHEMERIS_TYPE": 0, "CLASSIFICATION_TYPE": "U", "NORAD_CAT_ID": 34589, "ELEMENT_SET_NO": 999, "REV_AT_EPOCH": 84852, "BSTAR": 0.00040696918, "MEAN_MOTION_DOT": 5.77e-06, "MEAN_MOTION_DDOT": 0}, "tle": {"line1": "1 34589U 93036WB  25356.89467115  .00000577  00000+0  40697-3 0  9999", "line2": "2 34589  73.9251  38.7279 0252311 340.0599 203.9876 13.86064420848524"}}, "geometry": {"type": "Point", "coordinates": [-147.5418491017768, 18.511827759184154]}}, {"type": "Feature", "properties": {"norad_id": 34590, "name": "COSMOS 2251 DEB", "group": "cosmos-2251-debris", "lat": -58.96902085835739, "lon": 150.9266450715096, "alt_km": 764.6149680544531, "timestamp": "2025-12-23T07:45:09.799843+00:00", "meta": {"OBJECT_NAME": "COSMOS 2251 DEB", "OBJECT_ID": "1993-036WC", "EPOCH": "2025-12-22T06:27:48.696768", "MEAN_MOTION": 14.54836629, "ECCENTRICITY": 0.00680342, "INCLINATION": 74.0443, "RA_OF_ASC_NODE": 304.5231, "ARG_OF_PERICENTER": 71.336, "MEAN_ANOMALY": 55.0668, "EPHEMERIS_TYPE": 0, "CLASSIFICATION_TYPE": "U", "NORAD_CAT_ID": 34590, "ELEMENT_SET_NO": 999, "REV_AT_EPOCH": 89259, "BSTAR": 0.0001329784, "MEAN_MOTION_DOT": 5.59e-06, "MEAN_MOTION_DDOT": 0}, "tle": {"line1": "1 34590U 93036WC  25356.26931362  .00000559  00000+0  13298-3 0  9999", "line2": "2 34590  74.0443 304.5231 0068034  71.3360  55.0668 14.54836629892595"}}, "geometry": {"type": "Point", "coordinates": [150.9266450715096, -58.96902085835739]}}, {"type": "Feature", "properties": {"norad_id": 34609, "name": "COSMOS 2251 DEB", "group": "cosmos-2251-debris", "lat": -13.762081117436527, "lon": -88.5196270948407, "alt_km": 859.6001248318162, "timestamp": "2025-12-23T07:45:09.799853+00:00", "meta": {"OBJECT_NAME": "COSMOS 2251 DEB", "OBJECT_ID": "1993-036WE", "EPOCH": "2025-12-22T12:18:42.095808", "MEAN_MOTION": 14.21825611, "ECCENTRICITY": 0.01456888, "INCLINATION": 73.7327, "RA_OF_ASC_NODE": 88.8594, "ARG_OF_PERICENTER": 306.8419, "MEAN_ANOMALY": 64.3001, "EPHEMERIS_TYPE": 0, "CLASSIFICATION_TYPE": "U", "NORAD_CAT_ID": 34609, "ELEMENT_SET_NO": 999, "REV_AT_EPOCH": 86771, "BSTAR": 0.00071152645, "MEAN_MOTION_DOT": 1.717e-05, "MEAN_MOTION_DDOT": 0}, "tle": {"line1": "1 34609U 93036WE  25356.51298722  .00001717  00000+0  71153-3 0  9995", "line2": "2 34609  73.7327  88.8594 0145688 306.8419  64.3001 14.21825611867712"}}, "geometry": {"type": "Point", "coordinates": [-88.5196270948407, -13.762081117436527]}}]}